[{"OBJECT_NAME":"STARLINK-35485","OBJECT_ID":"2025-245T","EPOCH":"2026-03-09T20:34:31.389600","MEAN_MOTION":15.30187722,"ECCENTRICITY":0.00010902,"INCLINATION":53.1586,"RA_OF_ASC_NODE":283.0093,"ARG_OF_PERICENTER":152.8442,"MEAN_ANOMALY":207.2616,"EPHEMERIS_TYPE":0,"CLASSIFICATION_TYPE":"U","NORAD_CAT_ID":66251,"ELEMENT_SET_NO":999,"REV_AT_EPOCH":2106,"BSTAR":0.0014295218,"MEAN_MOTION_DOT":0.00042204,"MEAN_MOTION_DDOT":0},{"OBJECT_NAME":"OBJECT BC","OBJECT_ID":"2025-313BC","EPOCH":"2026-03-09T04:33:08.504064","MEAN_MOTION":15.29126358,"ECCENTRICITY":0.00084789,"INCLINATION":97.3985,"RA_OF_ASC_NODE":144.811,"ARG_OF_PERICENTER":328.9209,"MEAN_ANOMALY":31.1528,"EPHEMERIS_TYPE":0,"CLASSIFICATION_TYPE":"U","NORAD_CAT_ID":67298,"ELEMENT_SET_NO":999,"REV_AT_EPOCH":789,"BSTAR":0.0026410397,"MEAN_MOTION_DOT":0.00075331,"MEAN_MOTION_DDOT":0}]
